SAUDISAT 1C (SO-50)     
1 27607U 02058C   26181.23705801  .00000912  00000+0  12485-3 0  9995
2 27607  64.5520  88.6095 0074955 260.0398  99.2242 14.83073203266395
SAUDISAT 2              
1 28371U 04025F   26181.49202633  .00000247  00000+0  66355-4 0  9990
2 28371  98.5510 181.8179 0023467 255.1982 104.6615 14.56691179167680
SAUDISAT 3              
1 31118U 07012B   26181.38308832  .00000261  00000+0  50280-4 0  9994
2 31118  98.1461 131.7926 0014540 180.2663 179.8538 14.71432867 29683
PISAT                   
1 41784U 16059B   26181.49459232  .00000954  00000+0  16974-3 0  9998
2 41784  97.8181 181.3756 0029516 160.1786 200.0575 14.69006080521699
FLYING LAPTOP           
1 42831U 17042G   26181.58335111  .00003365  00000+0  26545-3 0  9998
2 42831  97.4743 336.6049 0019963  78.7182 281.6285 15.01230102488463
SALSAT                  
1 46495U 20068K   26181.48833811  .00007517  00000+0  26165-3 0  9990
2 46495  97.8843 185.3641 0007929 251.0233 109.0147 15.29983096317397
