OBJECT_NAME,OBJECT_ID,EPOCH,MEAN_MOTION,ECCENTRICITY,INCLINATION,RA_OF_ASC_NODE,ARG_OF_PERICENTER,MEAN_ANOMALY,EPHEMERIS_TYPE,CLASSIFICATION_TYPE,NORAD_CAT_ID,ELEMENT_SET_NO,REV_AT_EPOCH,BSTAR,MEAN_MOTION_DOT,MEAN_MOTION_DDOT
SAUDISAT 1C (SO-50),2002-058C,2026-06-30T05:41:21.812064,14.83073203,.00749557,64.5520,88.6095,260.0398,99.2242,0,U,27607,999,26639,.12484524E-3,.912E-5,0
SAUDISAT 2,2004-025F,2026-06-30T11:48:31.074912,14.56691179,.00234671,98.5510,181.8179,255.1982,104.6615,0,U,28371,999,16768,.66354631E-4,.247E-5,0
SAUDISAT 3,2007-012B,2026-06-30T09:11:38.830848,14.71432867,.00145403,98.1461,131.7926,180.2663,179.8538,0,U,31118,999,2968,.50279682E-4,.261E-5,0
PISAT,2016-059B,2026-06-30T11:52:12.776448,14.69006080,.00295169,97.8181,181.3756,160.1786,200.0575,0,U,41784,999,52169,.16974387E-3,.954E-5,0
FLYING LAPTOP,2017-042G,2026-06-30T14:00:01.535904,15.01230102,.00199639,97.4743,336.6049,78.7182,281.6285,0,U,42831,999,48846,.26544827E-3,.3365E-4,0
SALSAT,2020-068K,2026-06-30T11:43:12.412704,15.29983096,.0007929,97.8843,185.3641,251.0233,109.0147,0,U,46495,999,31739,.26165469E-3,.7517E-4,0
